[{"OBJECT_NAME":"STARLINK-30166","OBJECT_ID":"2023-119A","EPOCH":"2026-03-09T22:00:01.999584","MEAN_MOTION":15.20209688,"ECCENTRICITY":0.00015207,"INCLINATION":42.9996,"RA_OF_ASC_NODE":79.8686,"ARG_OF_PERICENTER":291.3826,"MEAN_ANOMALY":154.2975,"EPHEMERIS_TYPE":0,"CLASSIFICATION_TYPE":"U","NORAD_CAT_ID":57602,"ELEMENT_SET_NO":999,"REV_AT_EPOCH":578,"BSTAR":0.047916705,"MEAN_MOTION_DOT":0.01149875,"MEAN_MOTION_DDOT":0},{"OBJECT_NAME":"OBJECT C","OBJECT_ID":"2022-089C","EPOCH":"2026-03-09T17:47:21.026976","MEAN_MOTION":15.35935984,"ECCENTRICITY":0.0003051,"INCLINATION":97.2267,"RA_OF_ASC_NODE":166.2276,"ARG_OF_PERICENTER":174.1985,"MEAN_ANOMALY":185.9295,"EPHEMERIS_TYPE":0,"CLASSIFICATION_TYPE":"U","NORAD_CAT_ID":64627,"ELEMENT_SET_NO":999,"REV_AT_EPOCH":3935,"BSTAR":0.00035082,"MEAN_MOTION_DOT":0.000122,"MEAN_MOTION_DDOT":0}]
